STARLINK-3822           
1 52287U 22041AC  26068.52056167 -.00000052  00000+0  14814-4 0  9996
2 52287  53.2165 109.8809 0001469  93.4985 266.6175 15.08843112214341
STARLINK-5895           
1 55964U 23037BC  26068.93316413  .00010921  00000+0  72850-3 0  9993
2 55964  69.9972 260.0280 0004986 264.4993  95.5602 15.07243555164606
